{
"type": "FeatureCollection",
"name": "estaciones",
"crs": { "type": "name", "properties": { "name": "urn:ogc:def:crs:OGC:1.3:CRS84" } },
"features": [
{ "type": "Feature", "properties": { "code_internal": "02000002", "name": "Volc n Auncanquilcha", "lat": "-21.1906", "long": "-68.4528", "elevation": 5087.0, "basin": "Fronterizas Salar Michincha - R. Loa", "fuente": "DGA", "longitude": -68.4528, "latitude": -21.1906, "variables_disponibles": "SD" }, "geometry": { "type": "Point", "coordinates": [ -68.4528, -21.1906 ] } },
{ "type": "Feature", "properties": { "code_internal": "02300000", "name": "Paso Jama", "lat": "-22.922", "long": "-67.701", "elevation": 4680.0, "basin": "Fronterizas Salares Atacama-Socompa", "fuente": "DGA", "longitude": -67.701, "latitude": -22.922, "variables_disponibles": "SD" }, "geometry": { "type": "Point", "coordinates": [ -67.701, -22.922 ] } },
{ "type": "Feature", "properties": { "code_internal": "02400002", "name": "Cerro Chajnantor Cumbre", "lat": "-22.9872", "long": "-67.7422", "elevation": 5625.0, "basin": "Endorreica entre Fronterizas y Salar Atacama", "fuente": "DGA", "longitude": -67.7422, "latitude": -22.9872, "variables_disponibles": "SD" }, "geometry": { "type": "Point", "coordinates": [ -67.7422, -22.9872 ] } },
{ "type": "Feature", "properties": { "code_internal": "03031002", "name": "Volc n Ojos del Salado bajo Refugio Atacama", "lat": "-27.0519", "long": "-68.535", "elevation": 5201.0, "basin": "Endorreicas entre Frontera y Vertiente", "fuente": "DGA", "longitude": -68.535, "latitude": -27.0519, "variables_disponibles": "SD" }, "geometry": { "type": "Point", "coordinates": [ -68.535, -27.0519 ] } },
{ "type": "Feature", "properties": { "code_internal": "03031003", "name": "Volc n Ojos del Salado en Refugio Tejos", "lat": "-27.0869", "long": "-68.5378", "elevation": 5804.0, "basin": "Endorreicas entre Frontera y Vertiente", "fuente": "DGA", "longitude": -68.5378, "latitude": -27.0869, "variables_disponibles": "SD" }, "geometry": { "type": "Point", "coordinates": [ -68.5378, -27.0869 ] } },
{ "type": "Feature", "properties": { "code_internal": "03413001", "name": "Glaciar Maranceles", "lat": "-28.4572", "long": "-69.7236", "elevation": 3985.0, "basin": "Rio Copiapo", "fuente": "DGA", "longitude": -69.7236, "latitude": -28.4572, "variables_disponibles": "SD" }, "geometry": { "type": "Point", "coordinates": [ -69.7236, -28.4572 ] } },
{ "type": "Feature", "properties": { "code_internal": "04300001", "name": "Cerro Olivares", "lat": "-30.2567", "long": "-69.9355", "elevation": 3566.0, "basin": "Rio Elqui", "fuente": "DGA", "longitude": -69.9355, "latitude": -30.2567, "variables_disponibles": "SD" }, "geometry": { "type": "Point", "coordinates": [ -69.9355, -30.2567 ] } },
{ "type": "Feature", "properties": { "code_internal": "04300004", "name": "Glaciar Tapado en Los Corrales", "lat": "-30.1554", "long": "-69.8829", "elevation": 4065.0, "basin": "Rio Elqui", "fuente": "DGA", "longitude": -69.8829, "latitude": -30.1554, "variables_disponibles": "SD" }, "geometry": { "type": "Point", "coordinates": [ -69.8829, -30.1554 ] } },
{ "type": "Feature", "properties": { "code_internal": "0430003", "name": "El Jote", "lat": "-30.4053", "long": "-70.2795", "elevation": 3660.0, "basin": "Rio Elqui", "fuente": "CEAZA", "longitude": -70.2795, "latitude": -30.4053, "variables_disponibles": "SD" }, "geometry": { "type": "Point", "coordinates": [ -70.2795, -30.4053 ] } },
{ "type": "Feature", "properties": { "code_internal": "0430004", "name": "Tapado (TPF)", "lat": "-30.1584", "long": "-69.9084", "elevation": 4306.0, "basin": "Rio Elqui", "fuente": "CEAZA", "longitude": -69.9084, "latitude": -30.1584, "variables_disponibles": "SD" }, "geometry": { "type": "Point", "coordinates": [ -69.9084, -30.1584 ] } },
{ "type": "Feature", "properties": { "code_internal": "0430009", "name": "La Laguna", "lat": "-30.2032", "long": "-70.0371", "elevation": 3209.0, "basin": "Rio Elqui", "fuente": "CEAZA", "longitude": -70.0371, "latitude": -30.2032, "variables_disponibles": "SD" }, "geometry": { "type": "Point", "coordinates": [ -70.0371, -30.2032 ] } },
{ "type": "Feature", "properties": { "code_internal": "0430012", "name": "Llano de Las Liebres", "lat": "-30.2542", "long": "-69.9345", "elevation": 3565.0, "basin": "Rio Elqui", "fuente": "CEAZA", "longitude": -69.9345, "latitude": -30.2542, "variables_disponibles": "SD" }, "geometry": { "type": "Point", "coordinates": [ -69.9345, -30.2542 ] } },
{ "type": "Feature", "properties": { "code_internal": "0430014", "name": "Los Corrales", "lat": "-30.1615", "long": "-69.8759", "elevation": 3982.0, "basin": "Rio Elqui", "fuente": "CEAZA", "longitude": -69.8759, "latitude": -30.1615, "variables_disponibles": "SD" }, "geometry": { "type": "Point", "coordinates": [ -69.8759, -30.1615 ] } },
{ "type": "Feature", "properties": { "code_internal": "0450001", "name": "Tascadero", "lat": "-31.2628", "long": "-70.5399", "elevation": 3427.0, "basin": "Rio Limari", "fuente": "CEAZA", "longitude": -70.5399, "latitude": -31.2628, "variables_disponibles": "SD" }, "geometry": { "type": "Point", "coordinates": [ -70.5399, -31.2628 ] } },
{ "type": "Feature", "properties": { "code_internal": "04511004", "name": "Cerro Vega Negra", "lat": "-30.9059", "long": "-70.5165", "elevation": 3529.0, "basin": "Rio Limari", "fuente": "DGA", "longitude": -70.5165, "latitude": -30.9059, "variables_disponibles": "SD" }, "geometry": { "type": "Point", "coordinates": [ -70.5165, -30.9059 ] } },
{ "type": "Feature", "properties": { "code_internal": "04520006", "name": "Quebrada Larga Cota 3500", "lat": "-30.7252", "long": "-70.2918", "elevation": 3550.0, "basin": "Rio Limari", "fuente": "DGA", "longitude": -70.2918, "latitude": -30.7252, "variables_disponibles": "SD" }, "geometry": { "type": "Point", "coordinates": [ -70.2918, -30.7252 ] } },
{ "type": "Feature", "properties": { "code_internal": "04700002", "name": "El Soldado", "lat": "-32.0066", "long": "-70.3213", "elevation": 3293.0, "basin": "Rio Choapa", "fuente": "DGA", "longitude": -70.3213, "latitude": -32.0066, "variables_disponibles": "SD" }, "geometry": { "type": "Point", "coordinates": [ -70.3213, -32.0066 ] } },
{ "type": "Feature", "properties": { "code_internal": "0470001", "name": "Casa del Canto", "lat": "-31.4173", "long": "-70.589", "elevation": 3570.0, "basin": "Rio Choapa", "fuente": "CEAZA", "longitude": -70.589, "latitude": -31.4173, "variables_disponibles": "SD" }, "geometry": { "type": "Point", "coordinates": [ -70.589, -31.4173 ] } },
{ "type": "Feature", "properties": { "code_internal": "05100003", "name": "Nacimiento Del Sobrante", "lat": "-32.1889", "long": "-70.4829", "elevation": 3143.0, "basin": "Rio Petorca", "fuente": "DGA", "longitude": -70.4829, "latitude": -32.1889, "variables_disponibles": "SD" }, "geometry": { "type": "Point", "coordinates": [ -70.4829, -32.1889 ] } },
{ "type": "Feature", "properties": { "code_internal": "05400005", "name": "Glaciar Le n Negro", "lat": "-32.9936", "long": "-70.0283", "elevation": 4350.0, "basin": "Rio Aconcagua", "fuente": "DGA", "longitude": -70.0283, "latitude": -32.9936, "variables_disponibles": "SD" }, "geometry": { "type": "Point", "coordinates": [ -70.0283, -32.9936 ] } },
{ "type": "Feature", "properties": { "code_internal": "05401007", "name": "Portillo", "lat": "-32.8424", "long": "-70.097", "elevation": 3032.0, "basin": "Rio Aconcagua", "fuente": "DGA", "longitude": -70.097, "latitude": -32.8424, "variables_disponibles": "SD" }, "geometry": { "type": "Point", "coordinates": [ -70.097, -32.8424 ] } },
{ "type": "Feature", "properties": { "code_internal": "05701010", "name": "Las Melosas Ruta de Nieve", "lat": "-33.8636", "long": "-70.2727", "elevation": 3317.0, "basin": "Rio Maipo", "fuente": "DGA", "longitude": -70.2727, "latitude": -33.8636, "variables_disponibles": "SD" }, "geometry": { "type": "Point", "coordinates": [ -70.2727, -33.8636 ] } },
{ "type": "Feature", "properties": { "code_internal": "05701011", "name": "Las Hualtatas", "lat": "-34.0677", "long": "-70.1089", "elevation": 2020.0, "basin": "Rio Maipo", "fuente": "DGA", "longitude": -70.1089, "latitude": -34.0677, "variables_disponibles": "SD" }, "geometry": { "type": "Point", "coordinates": [ -70.1089, -34.0677 ] } },
{ "type": "Feature", "properties": { "code_internal": "05703009", "name": "Laguna Negra", "lat": "-33.6659", "long": "-70.1077", "elevation": 2785.0, "basin": "Rio Maipo", "fuente": "DGA", "longitude": -70.1077, "latitude": -33.6659, "variables_disponibles": "SD" }, "geometry": { "type": "Point", "coordinates": [ -70.1077, -33.6659 ] } },
{ "type": "Feature", "properties": { "code_internal": "05703012", "name": "Valle Echaurren Norte", "lat": "-33.5939", "long": "-70.1103", "elevation": 2950.0, "basin": "Rio Maipo", "fuente": "DGA", "longitude": -70.1103, "latitude": -33.5939, "variables_disponibles": "SD" }, "geometry": { "type": "Point", "coordinates": [ -70.1103, -33.5939 ] } },
{ "type": "Feature", "properties": { "code_internal": "05703013", "name": "Portezuelo Glaciar Echaurren Norte", "lat": "-33.5764", "long": "-70.1289", "elevation": 3847.0, "basin": "Rio Maipo", "fuente": "DGA", "longitude": -70.1289, "latitude": -33.5764, "variables_disponibles": "SD" }, "geometry": { "type": "Point", "coordinates": [ -70.1289, -33.5764 ] } },
{ "type": "Feature", "properties": { "code_internal": "05703014", "name": "Termas Del Plomo", "lat": "-33.6133", "long": "-69.9058", "elevation": 3027.0, "basin": "Rio Maipo", "fuente": "DGA", "longitude": -69.9058, "latitude": -33.6133, "variables_disponibles": "SD" }, "geometry": { "type": "Point", "coordinates": [ -69.9058, -33.6133 ] } },
{ "type": "Feature", "properties": { "code_internal": "05705004", "name": "Glaciar Tupungatito Bajo", "lat": "-33.3858", "long": "-69.8381", "elevation": 4425.0, "basin": "Rio Maipo", "fuente": "DGA", "longitude": -69.8381, "latitude": -33.3858, "variables_disponibles": "SD" }, "geometry": { "type": "Point", "coordinates": [ -69.8381, -33.3858 ] } },
{ "type": "Feature", "properties": { "code_internal": "05706002", "name": "Glaciar Olivares Gamma", "lat": "-33.1564", "long": "-70.1528", "elevation": 3628.0, "basin": "Rio Maipo", "fuente": "DGA", "longitude": -70.1528, "latitude": -33.1564, "variables_disponibles": "SD" }, "geometry": { "type": "Point", "coordinates": [ -70.1528, -33.1564 ] } },
{ "type": "Feature", "properties": { "code_internal": "05706003", "name": "Valle Olivares", "lat": "-33.191", "long": "-70.1141", "elevation": 2786.0, "basin": "Rio Maipo", "fuente": "DGA", "longitude": -70.1141, "latitude": -33.191, "variables_disponibles": "SD" }, "geometry": { "type": "Point", "coordinates": [ -70.1141, -33.191 ] } },
{ "type": "Feature", "properties": { "code_internal": "05706004", "name": "Glaciar Juncal Sur", "lat": "-33.1175", "long": "-70.1119", "elevation": 4035.0, "basin": "Rio Maipo", "fuente": "DGA", "longitude": -70.1119, "latitude": -33.1175, "variables_disponibles": "SD" }, "geometry": { "type": "Point", "coordinates": [ -70.1119, -33.1175 ] } },
{ "type": "Feature", "properties": { "code_internal": "05706005", "name": "Glaciar Olivares Alfa", "lat": "-33.1786", "long": "-70.2181", "elevation": 4230.0, "basin": "Rio Maipo", "fuente": "DGA", "longitude": -70.2181, "latitude": -33.1786, "variables_disponibles": "SD" }, "geometry": { "type": "Point", "coordinates": [ -70.2181, -33.1786 ] } },
{ "type": "Feature", "properties": { "code_internal": "05720005", "name": "Farellones", "lat": "-33.3517", "long": "-70.3128", "elevation": 2452.0, "basin": "Rio Maipo", "fuente": "DGA", "longitude": -70.3128, "latitude": -33.3517, "variables_disponibles": "SD" }, "geometry": { "type": "Point", "coordinates": [ -70.3128, -33.3517 ] } },
{ "type": "Feature", "properties": { "code_internal": "05721019", "name": "La Parva", "lat": "-33.3306", "long": "-70.2972", "elevation": 2703.0, "basin": "Rio Maipo", "fuente": "DGA", "longitude": -70.2972, "latitude": -33.3306, "variables_disponibles": "SD" }, "geometry": { "type": "Point", "coordinates": [ -70.2972, -33.3306 ] } },
{ "type": "Feature", "properties": { "code_internal": "06000004", "name": "Laguna El Yeso", "lat": "-34.4118", "long": "-70.2084", "elevation": 2140.0, "basin": "Rio Rapel", "fuente": "DGA", "longitude": -70.2084, "latitude": -34.4118, "variables_disponibles": "SD" }, "geometry": { "type": "Point", "coordinates": [ -70.2084, -34.4118 ] } },
{ "type": "Feature", "properties": { "code_internal": "06001000", "name": "Glaciar Cortaderal", "lat": "-34.6608", "long": "-70.2561", "elevation": 3156.0, "basin": "Rio Rapel", "fuente": "DGA", "longitude": -70.2561, "latitude": -34.6608, "variables_disponibles": "SD" }, "geometry": { "type": "Point", "coordinates": [ -70.2561, -34.6608 ] } },
{ "type": "Feature", "properties": { "code_internal": "06005005", "name": "Codelco Cerro Teniente", "lat": "-34.2047", "long": "-70.2692", "elevation": 2950.0, "basin": "Rio Rapel", "fuente": "DGA", "longitude": -70.2692, "latitude": -34.2047, "variables_disponibles": "SD" }, "geometry": { "type": "Point", "coordinates": [ -70.2692, -34.2047 ] } },
{ "type": "Feature", "properties": { "code_internal": "06013008", "name": "Laguna Los Cristales", "lat": "-34.5611", "long": "-70.5097", "elevation": 2357.0, "basin": "Rio Rapel", "fuente": "DGA", "longitude": -70.5097, "latitude": -34.5611, "variables_disponibles": "SD" }, "geometry": { "type": "Point", "coordinates": [ -70.5097, -34.5611 ] } },
{ "type": "Feature", "properties": { "code_internal": "06020001", "name": "Termas Del Flaco", "lat": "-34.893", "long": "-70.33", "elevation": 2665.0, "basin": "Rio Rapel", "fuente": "DGA", "longitude": -70.33, "latitude": -34.893, "variables_disponibles": "SD" }, "geometry": { "type": "Point", "coordinates": [ -70.33, -34.893 ] } },
{ "type": "Feature", "properties": { "code_internal": "06021002", "name": "Cerro Los Guzmanes", "lat": "-34.8861", "long": "-70.4636", "elevation": 3125.0, "basin": "Rio Rapel", "fuente": "DGA", "longitude": -70.4636, "latitude": -34.8861, "variables_disponibles": "SD" }, "geometry": { "type": "Point", "coordinates": [ -70.4636, -34.8861 ] } },
{ "type": "Feature", "properties": { "code_internal": "06023000", "name": "Glaciar Universidad en R o San Andr s", "lat": "-34.7186", "long": "-70.3592", "elevation": 2436.0, "basin": "Rio Rapel", "fuente": "DGA", "longitude": -70.3592, "latitude": -34.7186, "variables_disponibles": "SD" }, "geometry": { "type": "Point", "coordinates": [ -70.3592, -34.7186 ] } },
{ "type": "Feature", "properties": { "code_internal": "07100006", "name": "Paso Vergara", "lat": "-35.1948", "long": "-70.5114", "elevation": 2602.0, "basin": "Rio Mataquito", "fuente": "DGA", "longitude": -70.5114, "latitude": -35.1948, "variables_disponibles": "SD" }, "geometry": { "type": "Point", "coordinates": [ -70.5114, -35.1948 ] } },
{ "type": "Feature", "properties": { "code_internal": "07301000", "name": "Lo Aguirre", "lat": "-35.9713", "long": "-70.5721", "elevation": 1989.0, "basin": "Rio Maule", "fuente": "DGA", "longitude": -70.5721, "latitude": -35.9713, "variables_disponibles": "SD" }, "geometry": { "type": "Point", "coordinates": [ -70.5721, -35.9713 ] } },
{ "type": "Feature", "properties": { "code_internal": "07301001", "name": "Los Condores", "lat": "-36.0097", "long": "-70.5478", "elevation": 2439.0, "basin": "Rio Maule", "fuente": "DGA", "longitude": -70.5478, "latitude": -36.0097, "variables_disponibles": "SD" }, "geometry": { "type": "Point", "coordinates": [ -70.5478, -36.0097 ] } },
{ "type": "Feature", "properties": { "code_internal": "07301002", "name": "NUEVA LO AGUIRRE", "lat": "-35.9723", "long": "-70.5718", "elevation": 1997.0, "basin": "Rio Maule", "fuente": "DGA", "longitude": -70.5718, "latitude": -35.9723, "variables_disponibles": "SD" }, "geometry": { "type": "Point", "coordinates": [ -70.5718, -35.9723 ] } },
{ "type": "Feature", "properties": { "code_internal": "07350008", "name": "Nevado Longavi", "lat": "-36.2344", "long": "-71.1435", "elevation": 1977.0, "basin": "Rio Maule", "fuente": "DGA", "longitude": -71.1435, "latitude": -36.2344, "variables_disponibles": "SD" }, "geometry": { "type": "Point", "coordinates": [ -71.1435, -36.2344 ] } },
{ "type": "Feature", "properties": { "code_internal": "081001", "name": "Node1", "lat": "-36.9148", "long": "-71.4166", "elevation": 1633.0, "basin": "Rio Itata", "fuente": "UdeChile", "longitude": -71.4166, "latitude": -36.9148, "variables_disponibles": "SD" }, "geometry": { "type": "Point", "coordinates": [ -71.4166, -36.9148 ] } },
{ "type": "Feature", "properties": { "code_internal": "081002", "name": "Node2", "lat": "-36.9104", "long": "-71.4089", "elevation": 1809.0, "basin": "Rio Itata", "fuente": "UdeChile", "longitude": -71.4089, "latitude": -36.9104, "variables_disponibles": "SD" }, "geometry": { "type": "Point", "coordinates": [ -71.4089, -36.9104 ] } },
{ "type": "Feature", "properties": { "code_internal": "081003", "name": "Node3", "lat": "-36.9103", "long": "-71.3989", "elevation": 1938.0, "basin": "Rio Itata", "fuente": "UdeChile", "longitude": -71.3989, "latitude": -36.9103, "variables_disponibles": "SD" }, "geometry": { "type": "Point", "coordinates": [ -71.3989, -36.9103 ] } },
{ "type": "Feature", "properties": { "code_internal": "081004", "name": "Node4", "lat": "-36.9205", "long": "-71.418", "elevation": 1695.0, "basin": "Rio Itata", "fuente": "UdeChile", "longitude": -71.418, "latitude": -36.9205, "variables_disponibles": "SD" }, "geometry": { "type": "Point", "coordinates": [ -71.418, -36.9205 ] } },
{ "type": "Feature", "properties": { "code_internal": "08130009", "name": "Nevado Chillan", "lat": "-36.8473", "long": "-71.416", "elevation": 2546.0, "basin": "Rio Itata", "fuente": "DGA", "longitude": -71.416, "latitude": -36.8473, "variables_disponibles": "SD" }, "geometry": { "type": "Point", "coordinates": [ -71.416, -36.8473 ] } },
{ "type": "Feature", "properties": { "code_internal": "08301001", "name": "Liucura", "lat": "-38.6449", "long": "-71.0907", "elevation": 1034.0, "basin": "Rio Biobio", "fuente": "DGA", "longitude": -71.0907, "latitude": -38.6449, "variables_disponibles": "SD" }, "geometry": { "type": "Point", "coordinates": [ -71.0907, -38.6449 ] } },
{ "type": "Feature", "properties": { "code_internal": "08308003", "name": "Chenqueco", "lat": "-38.0647", "long": "-71.3547", "elevation": 778.0, "basin": "Rio Biobio", "fuente": "DGA", "longitude": -71.3547, "latitude": -38.0647, "variables_disponibles": "SD" }, "geometry": { "type": "Point", "coordinates": [ -71.3547, -38.0647 ] } },
{ "type": "Feature", "properties": { "code_internal": "08370010", "name": "Los Corralitos", "lat": "-37.5772", "long": "-71.1575", "elevation": 1785.0, "basin": "Rio Biobio", "fuente": "DGA", "longitude": -71.1575, "latitude": -37.5772, "variables_disponibles": "SD" }, "geometry": { "type": "Point", "coordinates": [ -71.1575, -37.5772 ] } },
{ "type": "Feature", "properties": { "code_internal": "08372001", "name": "Alto Mallines", "lat": "-37.1578", "long": "-71.243", "elevation": 1784.0, "basin": "Rio Biobio", "fuente": "DGA", "longitude": -71.243, "latitude": -37.1578, "variables_disponibles": "SD" }, "geometry": { "type": "Point", "coordinates": [ -71.243, -37.1578 ] } },
{ "type": "Feature", "properties": { "code_internal": "08374001", "name": "Volcan Chillan", "lat": "-36.8939", "long": "-71.4116", "elevation": 2078.0, "basin": "Rio Biobio", "fuente": "DGA", "longitude": -71.4116, "latitude": -36.8939, "variables_disponibles": "SD" }, "geometry": { "type": "Point", "coordinates": [ -71.4116, -36.8939 ] } },
{ "type": "Feature", "properties": { "code_internal": "10105003", "name": "Volc n Villarrica Pichillancahue", "lat": "-39.435", "long": "-71.8758", "elevation": 1800.0, "basin": "Rio Valdivia", "fuente": "DGA", "longitude": -71.8758, "latitude": -39.435, "variables_disponibles": "SD" }, "geometry": { "type": "Point", "coordinates": [ -71.8758, -39.435 ] } },
{ "type": "Feature", "properties": { "code_internal": "10110003", "name": "Complejo Volc nico Mocho Choshuenco", "lat": "-39.9514", "long": "-72.0586", "elevation": 1565.0, "basin": "Rio Valdivia", "fuente": "DGA", "longitude": -72.0586, "latitude": -39.9514, "variables_disponibles": "SD" }, "geometry": { "type": "Point", "coordinates": [ -72.0586, -39.9514 ] } },
{ "type": "Feature", "properties": { "code_internal": "10321001", "name": "Cardenal Samore", "lat": "-40.6831", "long": "-71.9864", "elevation": 920.0, "basin": "Rio Bueno", "fuente": "DGA", "longitude": -71.9864, "latitude": -40.6831, "variables_disponibles": "SD" }, "geometry": { "type": "Point", "coordinates": [ -71.9864, -40.6831 ] } },
{ "type": "Feature", "properties": { "code_internal": "10710004", "name": "Cuesta Moraga", "lat": "-43.336", "long": "-72.399", "elevation": 575.0, "basin": "Rio Yelcho", "fuente": "DGA", "longitude": -72.399, "latitude": -43.336, "variables_disponibles": "SD" }, "geometry": { "type": "Point", "coordinates": [ -72.399, -43.336 ] } },
{ "type": "Feature", "properties": { "code_internal": "1130001", "name": "Cerro Divisadero", "lat": "-45.6165", "long": "-72.0134", "elevation": 1430.0, "basin": "Rio Aysen", "fuente": "CIEP", "longitude": -72.0134, "latitude": -45.6165, "variables_disponibles": "SD" }, "geometry": { "type": "Point", "coordinates": [ -72.0134, -45.6165 ] } },
{ "type": "Feature", "properties": { "code_internal": "11314002", "name": "Cerro Divisadero en el Fraile", "lat": "-45.627", "long": "-72.004", "elevation": 1190.0, "basin": "Rio Aysen", "fuente": "DGA", "longitude": -72.004, "latitude": -45.627, "variables_disponibles": "SD" }, "geometry": { "type": "Point", "coordinates": [ -72.004, -45.627 ] } },
{ "type": "Feature", "properties": { "code_internal": "11440001", "name": "Hielo Norte en Glaciar San Rafael", "lat": "-46.7053", "long": "-73.5936", "elevation": 1187.0, "basin": "Costeras e Islas R. Aisen R. Baker C. Gral. Martinez", "fuente": "DGA", "longitude": -73.5936, "latitude": -46.7053, "variables_disponibles": "SD" }, "geometry": { "type": "Point", "coordinates": [ -73.5936, -46.7053 ] } },
{ "type": "Feature", "properties": { "code_internal": "1150003", "name": "Steffen", "lat": "-47.5555", "long": "-73.6958", "elevation": 30.0, "basin": "Rio Baker", "fuente": "CIEP", "longitude": -73.6958, "latitude": -47.5555, "variables_disponibles": "SD" }, "geometry": { "type": "Point", "coordinates": [ -73.6958, -47.5555 ] } },
{ "type": "Feature", "properties": { "code_internal": "11503002", "name": "Portezuelo Iba ez", "lat": "-46.0778", "long": "-72.051", "elevation": 1080.0, "basin": "Rio Baker", "fuente": "DGA", "longitude": -72.051, "latitude": -46.0778, "variables_disponibles": "SD" }, "geometry": { "type": "Point", "coordinates": [ -72.051, -46.0778 ] } },
{ "type": "Feature", "properties": { "code_internal": "12730001", "name": "Glaciar Snoring", "lat": "-53.723", "long": "-72.608", "elevation": 70.0, "basin": "Islas al sur Estrecho de Magallanes", "fuente": "DGA", "longitude": -72.608, "latitude": -53.723, "variables_disponibles": "SD" }, "geometry": { "type": "Point", "coordinates": [ -72.608, -53.723 ] } },
{ "type": "Feature", "properties": { "code_internal": "amtc10", "name": "Yerba Loca Alto", "lat": "-33.2092", "long": "-70.2769", "elevation": 3340.0, "basin": "Rio Maipo", "fuente": "UdeChile", "longitude": -70.2769, "latitude": -33.2092, "variables_disponibles": "SD" }, "geometry": { "type": "Point", "coordinates": [ -70.2769, -33.2092 ] } },
{ "type": "Feature", "properties": { "code_internal": "amtc12", "name": "Molina Medio", "lat": "-33.3753", "long": "-70.2413", "elevation": 2200.0, "basin": "Rio Maipo", "fuente": "UdeChile", "longitude": -70.2413, "latitude": -33.3753, "variables_disponibles": "SD" }, "geometry": { "type": "Point", "coordinates": [ -70.2413, -33.3753 ] } },
{ "type": "Feature", "properties": { "code_internal": "amtc13", "name": "Molina en Cepo", "lat": "-33.291", "long": "-70.2173", "elevation": 3380.0, "basin": "Rio Maipo", "fuente": "UdeChile", "longitude": -70.2173, "latitude": -33.291, "variables_disponibles": "SD" }, "geometry": { "type": "Point", "coordinates": [ -70.2173, -33.291 ] } },
{ "type": "Feature", "properties": { "code_internal": "amtc8", "name": "Yerba Loca Medio", "lat": "-33.273", "long": "-70.3", "elevation": 2520.0, "basin": "Rio Maipo", "fuente": "UdeChile", "longitude": -70.3, "latitude": -33.273, "variables_disponibles": "SD" }, "geometry": { "type": "Point", "coordinates": [ -70.3, -33.273 ] } },
{ "type": "Feature", "properties": { "code_internal": "aonikenk", "name": "Aonikenk", "lat": "-49.2774", "long": "-72.9975", "elevation": 1233.0, "basin": "Río Santa Cruz", "fuente": "IANIGLA", "longitude": -72.9975, "latitude": -49.2774, "variables_disponibles": "SD" }, "geometry": { "type": "Point", "coordinates": [ -72.9975, -49.2774 ] } },
{ "type": "Feature", "properties": { "code_internal": "capayan", "name": "Capay n", "lat": "-30.1734", "long": "-69.8038", "elevation": 4754.0, "basin": "R o J chal", "fuente": "IANIGLA", "longitude": -69.8038, "latitude": -30.1734, "variables_disponibles": "SD" }, "geometry": { "type": "Point", "coordinates": [ -69.8038, -30.1734 ] } },
{ "type": "Feature", "properties": { "code_internal": "chalten", "name": "Chalten", "lat": "-49.3381", "long": "-72.8844", "elevation": 400.0, "basin": "R o Santa Cruz", "fuente": "IANIGLA", "longitude": -72.8844, "latitude": -49.3381, "variables_disponibles": "SD" }, "geometry": { "type": "Point", "coordinates": [ -72.8844, -49.3381 ] } },
{ "type": "Feature", "properties": { "code_internal": "cuevas", "name": "Las Cuevas", "lat": "-32.813", "long": "-70.053", "elevation": 3197.0, "basin": "R o Mendoza", "fuente": "IANIGLA", "longitude": -70.053, "latitude": -32.813, "variables_disponibles": "SD" }, "geometry": { "type": "Point", "coordinates": [ -70.053, -32.813 ] } },
{ "type": "Feature", "properties": { "code_internal": "epulef", "name": "Epulef", "lat": "-49.0523", "long": "-72.9505", "elevation": 898.0, "basin": "Cuenca del Pacifico", "fuente": "IANIGLA", "longitude": -72.9505, "latitude": -49.0523, "variables_disponibles": "SD" }, "geometry": { "type": "Point", "coordinates": [ -72.9505, -49.0523 ] } },
{ "type": "Feature", "properties": { "code_internal": "piuquenes10", "name": "Piuquenes 10", "lat": "-33.3126", "long": "-70.2481", "elevation": 3570.0, "basin": "Rio Maipo", "fuente": "UdeChile", "longitude": -70.2481, "latitude": -33.3126, "variables_disponibles": "SD" }, "geometry": { "type": "Point", "coordinates": [ -70.2481, -33.3126 ] } },
{ "type": "Feature", "properties": { "code_internal": "piuquenes14", "name": "Piuquenes 14", "lat": "-33.3176", "long": "-70.2516", "elevation": 3380.0, "basin": "Rio Maipo", "fuente": "UdeChile", "longitude": -70.2516, "latitude": -33.3176, "variables_disponibles": "SD" }, "geometry": { "type": "Point", "coordinates": [ -70.2516, -33.3176 ] } },
{ "type": "Feature", "properties": { "code_internal": "piuquenes6", "name": "Piuquenes 6", "lat": "-33.3165", "long": "-70.2611", "elevation": 3556.0, "basin": "Rio Maipo", "fuente": "UdeChile", "longitude": -70.2611, "latitude": -33.3165, "variables_disponibles": "SD" }, "geometry": { "type": "Point", "coordinates": [ -70.2611, -33.3165 ] } },
{ "type": "Feature", "properties": { "code_internal": "piuquenes7", "name": "Piuquenes 7", "lat": "-33.3133", "long": "-70.2561", "elevation": 3483.0, "basin": "Rio Maipo", "fuente": "UdeChile", "longitude": -70.2561, "latitude": -33.3133, "variables_disponibles": "SD" }, "geometry": { "type": "Point", "coordinates": [ -70.2561, -33.3133 ] } },
{ "type": "Feature", "properties": { "code_internal": "plaza", "name": "Plaza de Mulas", "lat": "-32.6539", "long": "-70.0651", "elevation": 4320.0, "basin": "R o Mendoza", "fuente": "IANIGLA", "longitude": -70.0651, "latitude": -32.6539, "variables_disponibles": "SD" }, "geometry": { "type": "Point", "coordinates": [ -70.0651, -32.6539 ] } },
{ "type": "Feature", "properties": { "code_internal": "toqui", "name": "Toqui Lautaro", "lat": "-35.2928", "long": "-70.5163", "elevation": 2453.0, "basin": "R o Lautaro", "fuente": "IANIGLA", "longitude": -70.5163, "latitude": -35.2928, "variables_disponibles": "SD" }, "geometry": { "type": "Point", "coordinates": [ -70.5163, -35.2928 ] } },
{ "type": "Feature", "properties": { "code_internal": "tumbado", "name": "Pliegue Tumbado", "lat": "-49.3793", "long": "-72.9368", "elevation": 1070.0, "basin": "Río Santa Cruz", "fuente": "IANIGLA", "longitude": -72.9368, "latitude": -49.3793, "variables_disponibles": "SD" }, "geometry": { "type": "Point", "coordinates": [ -72.9368, -49.3793 ] } }
]
}
